*******************************************************************************
JPL/HORIZONS             2227 Otto Struve (1955 RX)        2023-Sep-04 11:16:43
Rec #:    2227 (+COV) Soln.date: 2023-Aug-22_18:23:22   # obs: 3862 (1935-2023)
 
IAU76/J2000 helio. ecliptic osc. elements (au, days, deg., period=Julian yrs):
 
  EPOCH=  2457813.5 ! 2017-Mar-01.00 (TDB)         Residual RMS= .26023
   EC= .1740100722951056   QR= 1.847368816983493   TP= 2457522.5138071654
   OM= 178.8993871133864   W=  254.0314085064052   IN= 4.950024331279486
   A= 2.236551264149933    MA= 85.74487481298475   ADIST= 2.625733711316372
   PER= 3.34485            N= .294669908           ANGMOM= .025333439
   DAN= 2.27788            DDN= 2.06975            L= 72.87407930000001
   B= -4.7585667           MOID= .86784202         TP= 2016-May-14.0138071654
 
Asteroid physical parameters (km, seconds, rotational period in hours):
   GM= n.a.                RAD= 2.334              ROTPER= 5.397
   H= 13.54                G= .150                 B-V= n.a.
                           ALBEDO= .388            STYP= n.a.

ASTEROID comments: 
1: soln ref.= JPL#53, OCC=0
2: source=ORB
*******************************************************************************


*******************************************************************************
Ephemeris / API_USER Mon Sep  4 11:16:43 2023 Pasadena, USA      / Horizons
*******************************************************************************
Target body name: 2227 Otto Struve (1955 RX)      {source: JPL#53}
Center body name: Solar System Barycenter (0)     {source: DE441}
Center-site name: BODY CENTER
*******************************************************************************
Start time      : A.D. 2023-Aug-12 00:00:00.0000 TDB
Stop  time      : A.D. 2023-Aug-13 00:00:00.0000 TDB
Step-size       : 2880 minutes
*******************************************************************************
Center geodetic : 0.0, 0.0, 0.0                   {E-lon(deg),Lat(deg),Alt(km)}
Center cylindric: 0.0, 0.0, 0.0                   {E-lon(deg),Dxy(km),Dz(km)}
Center radii    : (undefined)
Small perturbers: Yes                             {source: SB441-N16}
Output units    : KM-S
Calendar mode   : Mixed Julian/Gregorian
Output type     : GEOMETRIC cartesian states
Output format   : 2 (position and velocity)
Reference frame : Ecliptic of J2000.0
*******************************************************************************
Initial IAU76/J2000 heliocentric ecliptic osculating elements (au, days, deg.):
  EPOCH=  2457813.5 ! 2017-Mar-01.00 (TDB)         Residual RMS= .26023        
   EC= .1740100722951056   QR= 1.847368816983493   TP= 2457522.5138071654      
   OM= 178.8993871133864   W=  254.0314085064052   IN= 4.950024331279486       
  Equivalent ICRF heliocentric cartesian coordinates (au, au/d):
   X=-2.274181410762122E+00  Y= 5.572329084772165E-02  Z= 2.260854840167348E-02
  VX=-2.251218189494911E-03 VY=-1.050936373077041E-02 VZ=-3.510445954382108E-03
Asteroid physical parameters (km, seconds, rotational period in hours):        
   GM= n.a.                RAD= 2.334              ROTPER= 5.397               
   H= 13.54                G= .150                 B-V= n.a.                   
                           ALBEDO= .388            STYP= n.a.                  
*******************************************************************************
JDTDB
   X     Y     Z
   VX    VY    VZ
*******************************************************************************
$$SOE
2460168.500000000 = A.D. 2023-Aug-12 00:00:00.0000 TDB 
 X =-2.783165418191062E+08 Y = 1.471706265739745E+08 Z =-1.225834773798231E+07
 VX=-1.288639419166003E+01 VY=-1.674699966496884E+01 VZ= 1.471712478751120E+00
$$EOE
*******************************************************************************
 
TIME

  Barycentric Dynamical Time ("TDB" or T_eph) output was requested. This
continuous coordinate time is equivalent to the relativistic proper time
of a clock at rest in a reference frame co-moving with the solar system
barycenter but outside the system's gravity well. It is the independent
variable in the solar system relativistic equations of motion.

  TDB runs at a uniform rate of one SI second per second and is independent
of irregularities in Earth's rotation.
 
CALENDAR SYSTEM

  Mixed calendar mode was active such that calendar dates after AD 1582-Oct-15
(if any) are in the modern Gregorian system. Dates prior to 1582-Oct-5 (if any)
are in the Julian calendar system, which is automatically extended for dates
prior to its adoption on 45-Jan-1 BC.  The Julian calendar is useful for
matching historical dates. The Gregorian calendar more accurately corresponds
to the Earth's orbital motion and seasons. A "Gregorian-only" calendar mode is
available if such physical events are the primary interest.

REFERENCE FRAME AND COORDINATES

  Ecliptic at the standard reference epoch

    Reference epoch: J2000.0
    X-Y plane: adopted Earth orbital plane at the reference epoch
               Note: IAU76 obliquity of 84381.448 arcseconds wrt ICRF X-Y plane
    X-axis   : ICRF
    Z-axis   : perpendicular to the X-Y plane in the directional (+ or -) sense
               of Earth's north pole at the reference epoch.

  Symbol meaning:

    JDTDB    Julian Day Number, Barycentric Dynamical Time
      X      X-component of position vector (km)
      Y      Y-component of position vector (km)
      Z      Z-component of position vector (km)
      VX     X-component of velocity vector (km/sec)                           
      VY     Y-component of velocity vector (km/sec)                           
      VZ     Z-component of velocity vector (km/sec)                           

ABERRATIONS AND CORRECTIONS

 Geometric state vectors have NO corrections or aberrations applied.

Computations by ...

    Solar System Dynamics Group, Horizons On-Line Ephemeris System
    4800 Oak Grove Drive, Jet Propulsion Laboratory
    Pasadena, CA  91109   USA

    General site: https://ssd.jpl.nasa.gov/
    Mailing list: https://ssd.jpl.nasa.gov/email_list.html
    System news : https://ssd.jpl.nasa.gov/horizons/news.html
    User Guide  : https://ssd.jpl.nasa.gov/horizons/manual.html
    Connect     : browser        https://ssd.jpl.nasa.gov/horizons/app.html#/x
                  API            https://ssd-api.jpl.nasa.gov/doc/horizons.html
                  command-line   telnet ssd.jpl.nasa.gov 6775
                  e-mail/batch   https://ssd.jpl.nasa.gov/ftp/ssd/hrzn_batch.txt
                  scripts        https://ssd.jpl.nasa.gov/ftp/ssd/SCRIPTS
    Author      : Jon.D.Giorgini@jpl.nasa.gov
*******************************************************************************
